{
"type": "FeatureCollection",
"crs": { "type": "name", "properties": { "name": "urn:ogc:def:crs:OGC:1.3:CRS84" } },
"features": [
{ "type": "Feature", "properties": { "recinto": "Veta la Palma (balsas)", "area_ha": 2841.6 }, "geometry": { "type": "MultiPolygon", "coordinates": [ [ [ [ -6.24589, 36.90048 ], [ -6.245966, 36.900459 ], [ -6.246022, 36.900086 ], [ -6.246314, 36.898803 ], [ -6.246343, 36.89869 ], [ -6.2464, 36.898645 ], [ -6.246482, 36.898624 ], [ -6.248303, 36.898588 ], [ -6.251663, 36.898594 ], [ -6.253005, 36.898584 ], [ -6.254471, 36.898572 ], [ -6.254556, 36.898608 ], [ -6.254607, 36.89867 ], [ -6.25459, 36.898746 ], [ -6.25437, 36.899728 ], [ -6.254097, 36.900942 ], [ -6.253732, 36.902564 ], [ -6.253464, 36.902555 ], [ -6.253315, 36.903233 ], [ -6.253038, 36.904501 ], [ -6.252059, 36.904242 ], [ -6.248071, 36.903186 ], [ -6.245411, 36.902482 ], [ -6.245634, 36.901451 ], [ -6.245711, 36.901095 ], [ -6.24584, 36.900494 ], [ -6.24589, 36.90048 ] ] ], [ [ [ -6.257, 36.899476 ], [ -6.258178, 36.900645 ], [ -6.259521, 36.901977 ], [ -6.259805, 36.902259 ], [ -6.260736, 36.903183 ], [ -6.261539, 36.90399 ], [ -6.261622, 36.904082 ], [ -6.261644, 36.904144 ], [ -6.261662, 36.904193 ], [ -6.261645, 36.904273 ], [ -6.261457, 36.905146 ], [ -6.261141, 36.906616 ], [ -6.260112, 36.906352 ], [ -6.259654, 36.906238 ], [ -6.257706, 36.905722 ], [ -6.255412, 36.905113 ], [ -6.253553, 36.904621 ], [ -6.253584, 36.904484 ], [ -6.253882, 36.903161 ], [ -6.25417, 36.901808 ], [ -6.25448, 36.90043 ], [ -6.254757, 36.899201 ], [ -6.254801, 36.898989 ], [ -6.25486, 36.898794 ], [ -6.254914, 36.898736 ], [ -6.254983, 36.898683 ], [ -6.255049, 36.89867 ], [ -6.255442, 36.898747 ], [ -6.256284, 36.898912 ], [ -6.256453, 36.898972 ], [ -6.25656, 36.89904 ], [ -6.257, 36.899476 ] ] ], [ [ [ -6.260141, 36.911237 ], [ -6.260072, 36.911561 ], [ -6.25724, 36.910749 ], [ -6.256879, 36.910646 ], [ -6.256811, 36.910627 ], [ -6.255999, 36.910394 ], [ -6.254203, 36.909863 ], [ -6.25252, 36.909372 ], [ -6.25257, 36.909139 ], [ -6.25259, 36.909043 ], [ -6.252926, 36.907473 ], [ -6.253343, 36.905688 ], [ -6.255546, 36.906252 ], [ -6.259491, 36.907288 ], [ -6.260904, 36.907659 ], [ -6.260581, 36.909175 ], [ -6.260141, 36.911237 ] ] ], [ [ [ -6.259487, 36.914157 ], [ -6.258897, 36.916706 ], [ -6.258513, 36.918858 ], [ -6.25574, 36.918476 ], [ -6.253322, 36.918122 ], [ -6.251774, 36.91792 ], [ -6.250738, 36.917765 ], [ -6.250881, 36.91693 ], [ -6.250899, 36.916692 ], [ -6.251027, 36.916019 ], [ -6.251468, 36.914009 ], [ -6.25194, 36.911853 ], [ -6.252276, 36.910319 ], [ -6.257056, 36.911727 ], [ -6.259554, 36.912449 ], [ -6.259849, 36.912534 ], [ -6.259487, 36.914157 ] ] ], [ [ [ -6.257834, 36.922221 ], [ -6.257386, 36.924412 ], [ -6.257057, 36.925926 ], [ -6.256817, 36.927126 ], [ -6.254461, 36.926871 ], [ -6.251714, 36.926552 ], [ -6.249456, 36.926307 ], [ -6.249457, 36.926254 ], [ -6.249527, 36.92591 ], [ -6.249736, 36.924921 ], [ -6.249826, 36.924537 ], [ -6.249833, 36.924431 ], [ -6.249849, 36.924354 ], [ -6.249283, 36.924281 ], [ -6.249361, 36.923848 ], [ -6.249631, 36.922676 ], [ -6.249776, 36.922047 ], [ -6.249847, 36.921736 ], [ -6.250302, 36.919643 ], [ -6.250622, 36.918165 ], [ -6.250666, 36.918111 ], [ -6.250701, 36.918094 ], [ -6.253248, 36.918459 ], [ -6.256626, 36.91892 ], [ -6.258456, 36.919182 ], [ -6.258247, 36.920202 ], [ -6.257834, 36.922221 ] ] ], [ [ [ -6.249054, 36.927188 ], [ -6.250603, 36.927354 ], [ -6.251292, 36.927442 ], [ -6.251778, 36.927493 ], [ -6.252312, 36.92755 ], [ -6.253155, 36.92764 ], [ -6.255469, 36.9279 ], [ -6.256642, 36.928033 ], [ -6.256485, 36.928822 ], [ -6.256232, 36.930092 ], [ -6.256032, 36.931032 ], [ -6.255797, 36.932236 ], [ -6.255533, 36.933488 ], [ -6.255267, 36.93475 ], [ -6.255079, 36.935724 ], [ -6.255058, 36.9358 ], [ -6.255013, 36.935833 ], [ -6.254964, 36.93585 ], [ -6.254114, 36.935783 ], [ -6.253366, 36.935724 ], [ -6.250645, 36.935477 ], [ -6.2496, 36.935373 ], [ -6.247843, 36.935232 ], [ -6.247015, 36.935164 ], [ -6.246965, 36.935145 ], [ -6.246931, 36.935116 ], [ -6.246938, 36.935078 ], [ -6.247101, 36.934252 ], [ -6.247456, 36.93269 ], [ -6.247789, 36.931102 ], [ -6.248115, 36.929639 ], [ -6.248505, 36.929676 ], [ -6.248525, 36.92968 ], [ -6.248778, 36.928468 ], [ -6.24899, 36.927471 ], [ -6.249054, 36.927188 ] ] ], [ [ [ -6.25306, 36.936037 ], [ -6.254844, 36.936189 ], [ -6.254929, 36.936201 ], [ -6.25495, 36.936243 ], [ -6.254977, 36.936298 ], [ -6.254768, 36.937336 ], [ -6.254338, 36.939465 ], [ -6.253885, 36.941713 ], [ -6.253457, 36.943835 ], [ -6.253393, 36.94417 ], [ -6.25286, 36.944096 ], [ -6.250498, 36.943864 ], [ -6.248605, 36.943675 ], [ -6.247879, 36.943607 ], [ -6.247626, 36.943583 ], [ -6.24625, 36.943447 ], [ -6.245743, 36.943403 ], [ -6.245912, 36.942529 ], [ -6.246024, 36.941983 ], [ -6.246032, 36.941886 ], [ -6.24557, 36.941828 ], [ -6.24565, 36.94144 ], [ -6.246079, 36.939353 ], [ -6.246117, 36.939153 ], [ -6.246326, 36.938056 ], [ -6.246485, 36.937223 ], [ -6.246836, 36.93548 ], [ -6.249062, 36.935684 ], [ -6.249526, 36.93572 ], [ -6.25053, 36.935799 ], [ -6.25306, 36.936037 ] ] ], [ [ [ -6.253181, 36.945242 ], [ -6.252857, 36.946848 ], [ -6.252335, 36.949436 ], [ -6.251799, 36.952089 ], [ -6.251414, 36.953997 ], [ -6.248478, 36.953518 ], [ -6.245807, 36.953061 ], [ -6.243721, 36.952731 ], [ -6.243524, 36.952699 ], [ -6.243446, 36.95264 ], [ -6.24343, 36.95257 ], [ -6.243461, 36.95246 ], [ -6.243872, 36.950385 ], [ -6.244394, 36.947752 ], [ -6.244573, 36.946849 ], [ -6.245015, 36.946905 ], [ -6.245489, 36.944504 ], [ -6.247635, 36.944719 ], [ -6.248839, 36.944813 ], [ -6.253181, 36.945242 ] ] ], [ [ [ -6.261712, 36.977345 ], [ -6.261607, 36.977486 ], [ -6.261471, 36.977731 ], [ -6.260229, 36.977626 ], [ -6.26048, 36.976246 ], [ -6.260597, 36.976004 ], [ -6.25992, 36.973383 ], [ -6.263741, 36.975193 ], [ -6.262272, 36.97664 ], [ -6.261881, 36.977116 ], [ -6.261842, 36.977169 ], [ -6.261712, 36.977345 ] ] ], [ [ [ -6.259662, 36.979398 ], [ -6.259271, 36.979332 ], [ -6.25616, 36.976924 ], [ -6.258874, 36.972974 ], [ -6.259632, 36.97325 ], [ -6.260393, 36.975933 ], [ -6.259662, 36.979398 ] ] ], [ [ [ -6.271755, 36.975335 ], [ -6.274321, 36.975696 ], [ -6.276232, 36.97595 ], [ -6.276156, 36.976058 ], [ -6.276159, 36.976168 ], [ -6.276162, 36.976305 ], [ -6.276136, 36.976454 ], [ -6.276041, 36.976997 ], [ -6.275901, 36.977796 ], [ -6.275711, 36.977812 ], [ -6.275654, 36.977482 ], [ -6.273524, 36.977765 ], [ -6.273448, 36.977776 ], [ -6.273372, 36.977783 ], [ -6.272548, 36.977865 ], [ -6.270886, 36.978057 ], [ -6.269295, 36.978211 ], [ -6.269394, 36.976881 ], [ -6.269003, 36.976878 ], [ -6.269078, 36.975898 ], [ -6.269144, 36.97504 ], [ -6.269762, 36.97511 ], [ -6.271755, 36.975335 ] ] ], [ [ [ -6.264259, 36.975343 ], [ -6.26441, 36.975257 ], [ -6.264504, 36.975185 ], [ -6.264581, 36.975086 ], [ -6.264623, 36.974926 ], [ -6.264627, 36.974718 ], [ -6.26467, 36.974568 ], [ -6.264687, 36.974509 ], [ -6.264724, 36.97447 ], [ -6.264809, 36.97445 ], [ -6.264954, 36.974469 ], [ -6.26806, 36.974882 ], [ -6.269051, 36.975013 ], [ -6.268976, 36.976062 ], [ -6.268973, 36.976102 ], [ -6.268918, 36.976877 ], [ -6.268555, 36.976873 ], [ -6.268474, 36.977905 ], [ -6.268444, 36.9783 ], [ -6.2655, 36.978607 ], [ -6.265547, 36.9789 ], [ -6.265516, 36.978903 ], [ -6.265026, 36.978963 ], [ -6.26491, 36.978355 ], [ -6.265885, 36.978236 ], [ -6.267979, 36.978027 ], [ -6.26792, 36.977358 ], [ -6.267873, 36.976832 ], [ -6.268312, 36.976479 ], [ -6.26826, 36.976395 ], [ -6.267786, 36.976807 ], [ -6.267812, 36.977109 ], [ -6.267889, 36.977977 ], [ -6.265933, 36.978185 ], [ -6.264824, 36.978303 ], [ -6.264935, 36.978975 ], [ -6.264643, 36.979006 ], [ -6.262676, 36.979215 ], [ -6.261353, 36.979345 ], [ -6.261349, 36.978899 ], [ -6.261362, 36.978508 ], [ -6.261423, 36.978265 ], [ -6.261534, 36.97782 ], [ -6.261645, 36.977581 ], [ -6.261769, 36.977358 ], [ -6.261994, 36.977087 ], [ -6.26229, 36.97673 ], [ -6.262579, 36.976381 ], [ -6.262866, 36.976083 ], [ -6.263248, 36.975747 ], [ -6.263626, 36.97555 ], [ -6.264022, 36.975435 ], [ -6.264259, 36.975343 ] ] ], [ [ [ -6.259331, 36.979671 ], [ -6.259299, 36.979868 ], [ -6.259173, 36.979927 ], [ -6.258982, 36.981017 ], [ -6.258709, 36.982461 ], [ -6.258709, 36.982462 ], [ -6.258557, 36.983268 ], [ -6.258426, 36.984042 ], [ -6.257368, 36.983762 ], [ -6.254895, 36.98314 ], [ -6.254882, 36.983137 ], [ -6.254732, 36.983099 ], [ -6.253513, 36.982779 ], [ -6.253166, 36.982661 ], [ -6.252938, 36.982532 ], [ -6.252698, 36.982388 ], [ -6.252007, 36.981878 ], [ -6.251091, 36.981204 ], [ -6.250885, 36.981027 ], [ -6.250729, 36.980975 ], [ -6.250515, 36.980941 ], [ -6.249984, 36.98095 ], [ -6.249969, 36.980951 ], [ -6.249776, 36.980954 ], [ -6.248587, 36.980966 ], [ -6.248532, 36.980602 ], [ -6.248339, 36.979328 ], [ -6.24818, 36.978312 ], [ -6.248179, 36.978306 ], [ -6.248161, 36.978193 ], [ -6.247986, 36.976989 ], [ -6.247841, 36.97602 ], [ -6.247704, 36.975184 ], [ -6.247702, 36.975173 ], [ -6.24768, 36.975039 ], [ -6.247537, 36.973998 ], [ -6.247334, 36.97272 ], [ -6.247269, 36.972288 ], [ -6.247268, 36.97228 ], [ -6.24714, 36.971433 ], [ -6.247143, 36.97137 ], [ -6.247512, 36.97014 ], [ -6.247716, 36.969426 ], [ -6.24955, 36.969816 ], [ -6.251322, 36.970193 ], [ -6.251325, 36.970193 ], [ -6.251358, 36.9702 ], [ -6.252268, 36.970376 ], [ -6.25353, 36.970998 ], [ -6.255711, 36.972046 ], [ -6.255713, 36.972048 ], [ -6.257911, 36.973104 ], [ -6.258208, 36.973255 ], [ -6.258228, 36.973262 ], [ -6.258167, 36.973439 ], [ -6.257951, 36.973754 ], [ -6.257847, 36.973906 ], [ -6.257275, 36.974762 ], [ -6.257219, 36.974845 ], [ -6.257217, 36.974848 ], [ -6.256603, 36.975766 ], [ -6.255822, 36.976933 ], [ -6.255751, 36.977038 ], [ -6.255843, 36.977166 ], [ -6.255798, 36.977238 ], [ -6.255811, 36.977301 ], [ -6.255854, 36.977361 ], [ -6.255948, 36.977439 ], [ -6.256511, 36.97786 ], [ -6.257477, 36.978605 ], [ -6.258639, 36.979496 ], [ -6.258734, 36.979564 ], [ -6.258847, 36.979552 ], [ -6.258905, 36.979577 ], [ -6.258992, 36.979628 ], [ -6.259342, 36.979595 ], [ -6.259342, 36.979607 ], [ -6.259331, 36.979671 ], [ -6.259331, 36.979671 ] ] ], [ [ [ -6.26105, 36.978888 ], [ -6.261045, 36.978978 ], [ -6.26104, 36.979059 ], [ -6.26103, 36.979372 ], [ -6.259868, 36.979499 ], [ -6.260216, 36.977699 ], [ -6.261177, 36.977783 ], [ -6.261109, 36.978145 ], [ -6.261064, 36.978631 ], [ -6.26105, 36.978888 ] ] ], [ [ [ -6.275236, 36.981568 ], [ -6.275145, 36.982011 ], [ -6.273696, 36.982153 ], [ -6.272045, 36.982314 ], [ -6.269635, 36.982527 ], [ -6.268978, 36.98259 ], [ -6.269077, 36.981235 ], [ -6.269151, 36.980164 ], [ -6.269247, 36.978911 ], [ -6.27072, 36.978774 ], [ -6.272086, 36.978633 ], [ -6.273154, 36.978528 ], [ -6.274725, 36.978343 ], [ -6.275825, 36.978209 ], [ -6.27571, 36.978877 ], [ -6.275459, 36.980252 ], [ -6.275289, 36.981259 ], [ -6.275251, 36.981478 ], [ -6.275236, 36.981568 ] ] ], [ [ [ -6.262972, 36.979567 ], [ -6.263368, 36.979526 ], [ -6.265537, 36.979305 ], [ -6.267934, 36.97906 ], [ -6.268389, 36.979018 ], [ -6.268309, 36.980116 ], [ -6.268654, 36.980121 ], [ -6.268601, 36.980961 ], [ -6.268595, 36.981056 ], [ -6.268581, 36.981285 ], [ -6.268495, 36.982655 ], [ -6.26218, 36.983234 ], [ -6.262062, 36.983146 ], [ -6.262493, 36.980547 ], [ -6.262495, 36.980483 ], [ -6.262464, 36.980424 ], [ -6.262413, 36.980384 ], [ -6.26225, 36.980382 ], [ -6.26225, 36.980386 ], [ -6.262076, 36.980418 ], [ -6.261576, 36.979709 ], [ -6.262167, 36.979649 ], [ -6.262972, 36.979567 ] ] ], [ [ [ -6.260214, 36.979849 ], [ -6.260672, 36.979802 ], [ -6.2612, 36.979748 ], [ -6.261802, 36.980659 ], [ -6.261833, 36.980771 ], [ -6.261774, 36.981223 ], [ -6.261497, 36.982967 ], [ -6.259323, 36.982535 ], [ -6.259871, 36.979573 ], [ -6.261005, 36.979444 ], [ -6.261074, 36.979556 ], [ -6.261147, 36.979678 ], [ -6.260203, 36.979777 ], [ -6.260214, 36.979849 ] ] ], [ [ [ -6.259131, 36.984806 ], [ -6.259093, 36.984718 ], [ -6.259027, 36.984682 ], [ -6.258906, 36.984647 ], [ -6.259028, 36.984003 ], [ -6.25929, 36.982595 ], [ -6.260416, 36.982819 ], [ -6.26142, 36.983032 ], [ -6.26155, 36.98306 ], [ -6.261561, 36.983098 ], [ -6.261338, 36.984467 ], [ -6.261109, 36.985813 ], [ -6.260876, 36.987135 ], [ -6.260559, 36.987124 ], [ -6.260404, 36.987118 ], [ -6.259065, 36.98707 ], [ -6.258753, 36.987061 ], [ -6.258776, 36.986565 ], [ -6.258823, 36.986155 ], [ -6.258955, 36.985459 ], [ -6.258974, 36.985357 ], [ -6.259026, 36.985357 ], [ -6.259099, 36.985361 ], [ -6.259121, 36.985068 ], [ -6.259135, 36.984896 ], [ -6.259131, 36.984806 ] ] ], [ [ [ -6.234442, 36.902518 ], [ -6.235034, 36.90216 ], [ -6.235574, 36.901862 ], [ -6.236044, 36.901604 ], [ -6.236193, 36.901536 ], [ -6.236763, 36.901277 ], [ -6.237027, 36.901173 ], [ -6.237536, 36.90103 ], [ -6.239126, 36.900584 ], [ -6.24172, 36.899901 ], [ -6.243665, 36.899359 ], [ -6.244365, 36.899163 ], [ -6.244472, 36.899171 ], [ -6.244548, 36.899199 ], [ -6.244658, 36.899291 ], [ -6.244694, 36.899396 ], [ -6.24455, 36.900124 ], [ -6.244316, 36.900377 ], [ -6.244201, 36.900583 ], [ -6.244106, 36.901054 ], [ -6.24362, 36.903464 ], [ -6.24311, 36.905997 ], [ -6.242679, 36.905945 ], [ -6.242419, 36.907335 ], [ -6.240049, 36.907148 ], [ -6.239472, 36.907124 ], [ -6.239219, 36.90717 ], [ -6.239088, 36.907225 ], [ -6.237113, 36.905252 ], [ -6.235096, 36.903174 ], [ -6.234442, 36.902518 ] ] ], [ [ [ -6.25317, 36.905172 ], [ -6.2532, 36.905212 ], [ -6.252822, 36.906891 ], [ -6.252281, 36.909297 ], [ -6.249237, 36.908409 ], [ -6.248239, 36.908114 ], [ -6.247044, 36.907759 ], [ -6.244428, 36.906983 ], [ -6.244567, 36.906359 ], [ -6.245068, 36.904124 ], [ -6.245256, 36.903172 ], [ -6.24529, 36.903128 ], [ -6.245341, 36.903108 ], [ -6.245401, 36.903124 ], [ -6.247126, 36.90358 ], [ -6.250829, 36.90456 ], [ -6.253085, 36.905141 ], [ -6.25317, 36.905172 ] ] ], [ [ [ -6.241799, 36.910644 ], [ -6.242267, 36.910706 ], [ -6.241952, 36.912245 ], [ -6.241542, 36.914242 ], [ -6.24116, 36.915993 ], [ -6.241033, 36.915991 ], [ -6.238483, 36.91566 ], [ -6.23297, 36.914893 ], [ -6.230642, 36.914575 ], [ -6.231431, 36.914056 ], [ -6.238885, 36.90906 ], [ -6.239148, 36.908877 ], [ -6.241221, 36.909034 ], [ -6.242093, 36.909092 ], [ -6.241915, 36.910078 ], [ -6.241799, 36.910644 ] ] ], [ [ [ -6.251701, 36.911721 ], [ -6.251011, 36.914934 ], [ -6.250762, 36.916097 ], [ -6.250615, 36.916915 ], [ -6.250465, 36.917745 ], [ -6.250412, 36.917738 ], [ -6.248449, 36.91746 ], [ -6.243065, 36.916698 ], [ -6.242581, 36.91662 ], [ -6.242442, 36.916577 ], [ -6.24237, 36.916497 ], [ -6.24238, 36.916451 ], [ -6.242694, 36.914973 ], [ -6.242926, 36.913908 ], [ -6.24383, 36.909752 ], [ -6.244219, 36.907966 ], [ -6.244659, 36.908096 ], [ -6.247504, 36.908937 ], [ -6.24952, 36.909528 ], [ -6.252014, 36.910259 ], [ -6.251701, 36.911721 ] ] ], [ [ [ -6.230983, 36.915553 ], [ -6.231284, 36.915594 ], [ -6.234554, 36.916049 ], [ -6.235843, 36.916228 ], [ -6.239719, 36.916767 ], [ -6.241032, 36.916949 ], [ -6.240575, 36.919068 ], [ -6.240341, 36.920154 ], [ -6.240338, 36.920167 ], [ -6.239975, 36.921853 ], [ -6.23993, 36.922062 ], [ -6.239833, 36.922049 ], [ -6.239352, 36.92428 ], [ -6.239311, 36.924474 ], [ -6.239211, 36.924909 ], [ -6.239163, 36.925106 ], [ -6.238621, 36.925049 ], [ -6.235523, 36.924695 ], [ -6.235455, 36.924687 ], [ -6.234364, 36.924562 ], [ -6.234298, 36.924555 ], [ -6.232659, 36.924371 ], [ -6.229134, 36.923972 ], [ -6.229427, 36.922725 ], [ -6.229708, 36.921515 ], [ -6.230715, 36.916738 ], [ -6.230763, 36.916529 ], [ -6.230768, 36.916508 ], [ -6.230974, 36.915609 ], [ -6.230983, 36.915553 ] ] ], [ [ [ -6.248095, 36.917719 ], [ -6.250379, 36.918048 ], [ -6.250116, 36.919279 ], [ -6.249813, 36.920701 ], [ -6.249448, 36.9223 ], [ -6.249108, 36.923861 ], [ -6.248914, 36.924751 ], [ -6.248912, 36.92476 ], [ -6.248766, 36.925431 ], [ -6.248622, 36.926096 ], [ -6.248605, 36.926174 ], [ -6.248557, 36.926169 ], [ -6.248339, 36.926148 ], [ -6.248004, 36.926115 ], [ -6.246651, 36.925957 ], [ -6.246074, 36.92589 ], [ -6.245973, 36.925878 ], [ -6.245822, 36.92586 ], [ -6.244688, 36.925725 ], [ -6.243286, 36.925572 ], [ -6.241692, 36.925395 ], [ -6.241055, 36.925324 ], [ -6.241109, 36.925098 ], [ -6.241437, 36.923509 ], [ -6.24165, 36.9225 ], [ -6.24184, 36.921589 ], [ -6.241963, 36.920961 ], [ -6.242117, 36.920253 ], [ -6.242265, 36.919556 ], [ -6.242468, 36.918561 ], [ -6.242595, 36.917902 ], [ -6.242733, 36.917224 ], [ -6.242775, 36.916988 ], [ -6.243189, 36.917045 ], [ -6.24319, 36.917045 ], [ -6.243204, 36.917047 ], [ -6.245992, 36.917431 ], [ -6.248095, 36.917719 ] ] ], [ [ [ -6.247864, 36.929602 ], [ -6.247186, 36.932687 ], [ -6.246736, 36.934731 ], [ -6.246513, 36.934708 ], [ -6.244166, 36.934491 ], [ -6.242836, 36.934367 ], [ -6.239158, 36.934019 ], [ -6.240726, 36.926246 ], [ -6.246095, 36.92685 ], [ -6.247959, 36.927059 ], [ -6.247556, 36.929009 ], [ -6.247445, 36.929546 ], [ -6.247864, 36.929602 ] ] ], [ [ [ -6.241186, 36.935015 ], [ -6.242366, 36.935123 ], [ -6.243948, 36.935247 ], [ -6.246582, 36.935453 ], [ -6.246182, 36.937538 ], [ -6.245886, 36.938983 ], [ -6.245755, 36.939624 ], [ -6.24553, 36.940724 ], [ -6.245473, 36.940999 ], [ -6.245108, 36.940985 ], [ -6.244631, 36.943295 ], [ -6.243226, 36.943145 ], [ -6.242401, 36.943064 ], [ -6.24042, 36.942871 ], [ -6.237769, 36.942618 ], [ -6.237317, 36.942571 ], [ -6.236936, 36.942528 ], [ -6.237468, 36.939985 ], [ -6.238173, 36.936806 ], [ -6.238558, 36.934864 ], [ -6.238607, 36.9348 ], [ -6.238676, 36.934784 ], [ -6.241186, 36.935015 ] ] ], [ [ [ -6.244531, 36.945822 ], [ -6.244386, 36.946546 ], [ -6.243871, 36.949112 ], [ -6.243469, 36.951142 ], [ -6.24319, 36.952527 ], [ -6.243165, 36.952559 ], [ -6.243116, 36.952613 ], [ -6.243044, 36.952615 ], [ -6.239312, 36.951991 ], [ -6.235855, 36.951418 ], [ -6.235331, 36.951338 ], [ -6.235213, 36.951305 ], [ -6.235146, 36.95126 ], [ -6.235132, 36.951239 ], [ -6.23511, 36.951182 ], [ -6.235261, 36.950437 ], [ -6.235796, 36.947892 ], [ -6.236333, 36.945352 ], [ -6.236696, 36.943651 ], [ -6.237004, 36.943686 ], [ -6.240782, 36.944035 ], [ -6.244418, 36.944395 ], [ -6.244152, 36.945785 ], [ -6.244531, 36.945822 ] ] ], [ [ [ -6.24224, 36.957314 ], [ -6.241723, 36.959995 ], [ -6.241704, 36.960057 ], [ -6.241637, 36.960044 ], [ -6.237913, 36.959302 ], [ -6.233876, 36.958491 ], [ -6.233796, 36.958427 ], [ -6.233712, 36.958359 ], [ -6.233666, 36.958297 ], [ -6.233607, 36.958217 ], [ -6.233619, 36.958161 ], [ -6.234155, 36.955642 ], [ -6.234709, 36.953041 ], [ -6.235009, 36.951706 ], [ -6.235027, 36.951638 ], [ -6.239034, 36.952313 ], [ -6.243073, 36.952993 ], [ -6.242736, 36.954741 ], [ -6.24224, 36.957314 ] ] ], [ [ [ -6.251335, 36.954391 ], [ -6.251347, 36.95447 ], [ -6.251255, 36.954919 ], [ -6.250801, 36.957142 ], [ -6.250386, 36.95935 ], [ -6.249958, 36.961499 ], [ -6.249928, 36.9616 ], [ -6.249868, 36.961647 ], [ -6.2498, 36.961662 ], [ -6.2472, 36.961148 ], [ -6.246133, 36.960937 ], [ -6.242372, 36.960193 ], [ -6.241956, 36.960111 ], [ -6.241952, 36.960084 ], [ -6.241941, 36.960024 ], [ -6.24229, 36.958323 ], [ -6.242735, 36.956151 ], [ -6.243216, 36.953624 ], [ -6.243328, 36.953067 ], [ -6.243369, 36.953042 ], [ -6.245727, 36.953437 ], [ -6.249079, 36.953999 ], [ -6.25102, 36.9543 ], [ -6.251305, 36.954355 ], [ -6.251335, 36.954391 ] ] ], [ [ [ -6.241662, 36.960266 ], [ -6.241392, 36.961587 ], [ -6.240977, 36.963644 ], [ -6.240657, 36.9652 ], [ -6.240573, 36.965609 ], [ -6.240289, 36.966968 ], [ -6.238474, 36.966581 ], [ -6.237461, 36.966352 ], [ -6.235725, 36.966007 ], [ -6.234993, 36.965848 ], [ -6.233289, 36.965487 ], [ -6.232327, 36.965281 ], [ -6.232087, 36.965233 ], [ -6.232039, 36.96521 ], [ -6.232006, 36.965161 ], [ -6.232019, 36.96511 ], [ -6.23214, 36.964696 ], [ -6.232422, 36.963736 ], [ -6.232579, 36.963158 ], [ -6.232924, 36.961752 ], [ -6.233313, 36.959804 ], [ -6.233491, 36.95876 ], [ -6.233519, 36.958692 ], [ -6.233565, 36.958675 ], [ -6.233633, 36.958673 ], [ -6.233883, 36.958716 ], [ -6.237002, 36.959333 ], [ -6.238052, 36.959537 ], [ -6.238865, 36.959712 ], [ -6.241662, 36.960266 ] ] ], [ [ [ -6.249788, 36.961876 ], [ -6.249841, 36.961915 ], [ -6.249861, 36.962009 ], [ -6.249458, 36.964116 ], [ -6.248991, 36.966559 ], [ -6.248543, 36.968721 ], [ -6.244024, 36.967744 ], [ -6.24276, 36.967477 ], [ -6.24056, 36.967014 ], [ -6.240739, 36.966125 ], [ -6.241522, 36.962218 ], [ -6.241902, 36.960321 ], [ -6.244179, 36.96077 ], [ -6.24845, 36.961612 ], [ -6.249634, 36.961824 ], [ -6.249788, 36.961876 ] ] ], [ [ [ -6.240546, 36.968898 ], [ -6.239988, 36.970743 ], [ -6.239426, 36.9726 ], [ -6.239015, 36.974065 ], [ -6.238542, 36.975835 ], [ -6.238056, 36.977583 ], [ -6.238056, 36.977585 ], [ -6.235669, 36.976318 ], [ -6.235058, 36.97601 ], [ -6.233441, 36.975128 ], [ -6.232586, 36.974661 ], [ -6.232484, 36.974606 ], [ -6.229918, 36.973234 ], [ -6.230043, 36.972869 ], [ -6.230233, 36.972229 ], [ -6.230541, 36.971329 ], [ -6.230925, 36.970017 ], [ -6.231345, 36.968723 ], [ -6.231721, 36.967515 ], [ -6.232224, 36.965978 ], [ -6.232491, 36.966033 ], [ -6.234483, 36.966459 ], [ -6.237741, 36.967154 ], [ -6.240872, 36.967839 ], [ -6.240546, 36.968898 ] ] ], [ [ [ -6.240291, 36.971374 ], [ -6.240631, 36.970238 ], [ -6.24074, 36.969875 ], [ -6.240831, 36.969743 ], [ -6.241018, 36.969474 ], [ -6.241104, 36.969282 ], [ -6.241071, 36.968947 ], [ -6.24097, 36.968645 ], [ -6.240974, 36.96852 ], [ -6.240979, 36.968398 ], [ -6.241162, 36.96817 ], [ -6.241304, 36.967991 ], [ -6.241659, 36.968064 ], [ -6.242083, 36.968172 ], [ -6.243341, 36.968452 ], [ -6.245551, 36.968937 ], [ -6.245932, 36.969018 ], [ -6.246667, 36.969178 ], [ -6.246347, 36.970261 ], [ -6.246069, 36.971202 ], [ -6.246055, 36.971454 ], [ -6.246106, 36.971848 ], [ -6.246304, 36.973271 ], [ -6.246527, 36.974731 ], [ -6.246563, 36.974981 ], [ -6.246695, 36.975903 ], [ -6.246926, 36.977435 ], [ -6.247049, 36.978244 ], [ -6.247049, 36.978246 ], [ -6.247164, 36.979001 ], [ -6.247401, 36.980544 ], [ -6.247489, 36.981231 ], [ -6.246035, 36.981212 ], [ -6.245256, 36.981206 ], [ -6.243936, 36.980536 ], [ -6.243299, 36.98019 ], [ -6.243286, 36.98014 ], [ -6.238795, 36.977332 ], [ -6.239929, 36.972781 ], [ -6.23999, 36.97268 ], [ -6.23998, 36.972644 ], [ -6.240057, 36.972157 ], [ -6.240291, 36.971374 ] ] ], [ [ [ -6.237836, 36.978097 ], [ -6.239661, 36.97906 ], [ -6.239735, 36.9791 ], [ -6.241329, 36.979941 ], [ -6.242929, 36.980788 ], [ -6.243211, 36.980936 ], [ -6.243149, 36.981149 ], [ -6.243134, 36.981201 ], [ -6.242946, 36.981853 ], [ -6.242875, 36.982115 ], [ -6.242543, 36.983339 ], [ -6.242289, 36.984215 ], [ -6.242077, 36.984944 ], [ -6.241041, 36.984697 ], [ -6.239834, 36.984386 ], [ -6.239643, 36.984333 ], [ -6.239267, 36.984171 ], [ -6.23711, 36.983349 ], [ -6.236101, 36.982953 ], [ -6.235311, 36.982668 ], [ -6.234717, 36.982433 ], [ -6.232587, 36.981624 ], [ -6.231902, 36.981374 ], [ -6.229518, 36.980454 ], [ -6.229147, 36.980323 ], [ -6.228235, 36.979976 ], [ -6.227739, 36.979831 ], [ -6.22797, 36.979099 ], [ -6.228365, 36.97787 ], [ -6.228771, 36.976595 ], [ -6.229128, 36.975498 ], [ -6.229483, 36.974352 ], [ -6.229687, 36.973786 ], [ -6.230865, 36.974425 ], [ -6.233294, 36.975704 ], [ -6.235552, 36.976896 ], [ -6.237836, 36.978097 ] ] ], [ [ [ -6.239313, 36.999335 ], [ -6.239189, 36.99911 ], [ -6.239082, 36.998894 ], [ -6.23893, 36.998743 ], [ -6.238741, 36.998659 ], [ -6.238468, 36.998653 ], [ -6.238308, 36.998639 ], [ -6.238078, 36.998617 ], [ -6.237912, 36.998562 ], [ -6.237588, 36.998514 ], [ -6.23728, 36.998533 ], [ -6.236885, 36.998586 ], [ -6.236566, 36.998549 ], [ -6.236386, 36.998469 ], [ -6.2362, 36.998266 ], [ -6.236152, 36.998171 ], [ -6.236101, 36.997992 ], [ -6.236114, 36.997787 ], [ -6.236077, 36.997636 ], [ -6.235997, 36.997529 ], [ -6.235736, 36.997415 ], [ -6.235515, 36.997291 ], [ -6.235429, 36.997152 ], [ -6.235802, 36.99729 ], [ -6.236161, 36.997429 ], [ -6.236466, 36.997551 ], [ -6.236566, 36.997517 ], [ -6.23676, 36.997402 ], [ -6.236904, 36.997277 ], [ -6.236997, 36.997077 ], [ -6.23702, 36.996885 ], [ -6.237046, 36.996764 ], [ -6.237144, 36.996585 ], [ -6.237353, 36.996413 ], [ -6.237651, 36.996249 ], [ -6.237995, 36.996148 ], [ -6.238363, 36.996083 ], [ -6.239029, 36.99597 ], [ -6.23956, 36.995891 ], [ -6.23978, 36.995878 ], [ -6.240037, 36.995907 ], [ -6.240395, 36.996017 ], [ -6.240973, 36.996238 ], [ -6.241316, 36.996409 ], [ -6.241584, 36.996582 ], [ -6.241778, 36.996683 ], [ -6.241902, 36.996704 ], [ -6.242034, 36.996697 ], [ -6.242154, 36.99662 ], [ -6.242318, 36.99652 ], [ -6.242443, 36.99646 ], [ -6.242563, 36.996478 ], [ -6.242659, 36.996556 ], [ -6.242703, 36.996658 ], [ -6.242727, 36.996802 ], [ -6.242715, 36.996923 ], [ -6.242694, 36.997174 ], [ -6.242696, 36.997326 ], [ -6.242713, 36.997405 ], [ -6.242769, 36.997485 ], [ -6.242864, 36.997528 ], [ -6.242983, 36.997529 ], [ -6.243137, 36.997514 ], [ -6.243226, 36.997543 ], [ -6.243283, 36.997623 ], [ -6.243294, 36.997789 ], [ -6.243325, 36.998007 ], [ -6.243402, 36.998154 ], [ -6.243544, 36.998259 ], [ -6.243701, 36.998333 ], [ -6.243815, 36.998425 ], [ -6.243828, 36.998503 ], [ -6.243793, 36.998624 ], [ -6.243793, 36.998734 ], [ -6.243848, 36.998884 ], [ -6.243989, 36.999092 ], [ -6.244081, 36.999277 ], [ -6.244124, 36.999552 ], [ -6.244086, 36.999811 ], [ -6.243915, 37.00007 ], [ -6.243897, 37.000148 ], [ -6.243776, 37.000401 ], [ -6.243454, 37.001091 ], [ -6.243307, 37.001321 ], [ -6.243169, 37.001652 ], [ -6.243156, 37.001841 ], [ -6.243242, 37.002028 ], [ -6.242913, 37.002142 ], [ -6.24268, 37.002204 ], [ -6.242586, 37.002215 ], [ -6.242582, 37.00227 ], [ -6.242496, 37.002421 ], [ -6.2424, 37.002521 ], [ -6.242287, 37.002662 ], [ -6.242235, 37.002834 ], [ -6.242216, 37.003009 ], [ -6.242222, 37.003166 ], [ -6.241628, 37.003023 ], [ -6.241627, 37.003023 ], [ -6.241137, 37.002912 ], [ -6.241135, 37.002912 ], [ -6.241134, 37.002911 ], [ -6.241084, 37.002902 ], [ -6.241103, 37.002854 ], [ -6.241137, 37.002715 ], [ -6.241201, 37.002512 ], [ -6.241221, 37.002352 ], [ -6.241222, 37.00222 ], [ -6.241196, 37.002088 ], [ -6.241125, 37.001962 ], [ -6.240968, 37.001866 ], [ -6.240859, 37.0018 ], [ -6.240647, 37.001784 ], [ -6.240415, 37.00178 ], [ -6.240152, 37.001819 ], [ -6.23995, 37.001834 ], [ -6.239805, 37.001838 ], [ -6.239624, 37.001795 ], [ -6.239542, 37.001739 ], [ -6.239471, 37.001629 ], [ -6.239439, 37.001492 ], [ -6.239439, 37.001344 ], [ -6.239485, 37.001162 ], [ -6.23957, 37.000823 ], [ -6.239604, 37.0007 ], [ -6.239634, 37.000471 ], [ -6.239627, 37.00007 ], [ -6.239635, 36.99995 ], [ -6.239616, 36.999815 ], [ -6.239629, 36.999701 ], [ -6.239606, 36.999575 ], [ -6.239442, 36.999455 ], [ -6.239313, 36.999335 ] ] ], [ [ [ -6.24244, 37.003365 ], [ -6.242718, 37.003372 ], [ -6.243722, 37.005468 ], [ -6.243758, 37.005539 ], [ -6.243999, 37.006034 ], [ -6.244499, 37.007098 ], [ -6.24498, 37.008108 ], [ -6.245631, 37.009511 ], [ -6.246136, 37.010571 ], [ -6.246687, 37.011736 ], [ -6.247088, 37.012501 ], [ -6.247119, 37.012588 ], [ -6.247077, 37.012669 ], [ -6.24703, 37.012736 ], [ -6.246896, 37.012818 ], [ -6.245774, 37.01355 ], [ -6.24404, 37.014654 ], [ -6.242085, 37.015894 ], [ -6.24107, 37.016569 ], [ -6.240552, 37.016907 ], [ -6.239296, 37.017709 ], [ -6.237829, 37.018654 ], [ -6.237493, 37.018881 ], [ -6.237398, 37.018891 ], [ -6.237352, 37.018885 ], [ -6.237301, 37.018857 ], [ -6.236458, 37.017992 ], [ -6.235548, 37.017075 ], [ -6.234496, 37.016004 ], [ -6.233555, 37.015065 ], [ -6.232441, 37.013934 ], [ -6.232048, 37.013569 ], [ -6.232031, 37.01349 ], [ -6.232118, 37.013396 ], [ -6.232356, 37.013226 ], [ -6.232616, 37.013025 ], [ -6.233009, 37.012702 ], [ -6.233541, 37.012251 ], [ -6.233759, 37.012017 ], [ -6.234241, 37.011479 ], [ -6.234809, 37.010885 ], [ -6.23493, 37.010754 ], [ -6.235168, 37.010467 ], [ -6.235519, 37.010042 ], [ -6.235815, 37.009689 ], [ -6.236062, 37.009394 ], [ -6.236199, 37.009201 ], [ -6.236403, 37.008966 ], [ -6.236673, 37.008689 ], [ -6.236903, 37.008479 ], [ -6.237173, 37.008213 ], [ -6.237439, 37.008031 ], [ -6.237626, 37.007836 ], [ -6.237878, 37.007549 ], [ -6.238093, 37.007249 ], [ -6.238219, 37.007005 ], [ -6.23841, 37.00657 ], [ -6.238631, 37.006072 ], [ -6.238831, 37.005659 ], [ -6.239165, 37.005038 ], [ -6.239386, 37.004668 ], [ -6.239648, 37.004304 ], [ -6.239905, 37.003919 ], [ -6.240227, 37.003469 ], [ -6.240382, 37.003304 ], [ -6.240583, 37.00312 ], [ -6.240699, 37.003059 ], [ -6.240815, 37.003019 ], [ -6.240902, 37.00302 ], [ -6.241094, 37.003044 ], [ -6.241429, 37.003108 ], [ -6.241811, 37.003221 ], [ -6.24244, 37.003365 ] ] ], [ [ [ -6.227991, 36.916307 ], [ -6.229358, 36.915413 ], [ -6.229469, 36.915348 ], [ -6.229921, 36.915415 ], [ -6.229744, 36.916186 ], [ -6.229357, 36.918231 ], [ -6.228736, 36.920831 ], [ -6.228627, 36.921396 ], [ -6.228557, 36.921384 ], [ -6.228148, 36.922963 ], [ -6.227972, 36.923704 ], [ -6.227943, 36.923836 ], [ -6.227305, 36.923766 ], [ -6.225727, 36.923591 ], [ -6.223349, 36.923308 ], [ -6.220899, 36.923033 ], [ -6.218475, 36.922765 ], [ -6.218601, 36.922684 ], [ -6.22033, 36.92152 ], [ -6.222084, 36.920337 ], [ -6.223916, 36.919112 ], [ -6.225167, 36.918284 ], [ -6.22747, 36.916738 ], [ -6.227991, 36.916307 ] ] ], [ [ [ -6.227603, 36.925152 ], [ -6.227493, 36.925632 ], [ -6.227319, 36.926531 ], [ -6.227383, 36.92654 ], [ -6.226881, 36.928794 ], [ -6.22638, 36.930921 ], [ -6.225917, 36.932888 ], [ -6.225842, 36.932881 ], [ -6.224619, 36.932779 ], [ -6.219978, 36.932383 ], [ -6.212126, 36.931731 ], [ -6.212384, 36.931306 ], [ -6.214629, 36.927974 ], [ -6.215836, 36.926207 ], [ -6.217583, 36.923638 ], [ -6.218578, 36.923742 ], [ -6.22242, 36.924177 ], [ -6.226711, 36.924671 ], [ -6.227683, 36.924786 ], [ -6.227603, 36.925152 ] ] ], [ [ [ -6.237871, 36.931587 ], [ -6.237368, 36.933972 ], [ -6.235891, 36.933842 ], [ -6.232302, 36.933526 ], [ -6.230591, 36.933376 ], [ -6.226898, 36.933051 ], [ -6.227013, 36.932559 ], [ -6.2276, 36.930045 ], [ -6.227605, 36.930026 ], [ -6.227655, 36.929813 ], [ -6.227933, 36.92862 ], [ -6.228068, 36.928044 ], [ -6.22815, 36.927709 ], [ -6.228247, 36.927306 ], [ -6.228837, 36.924849 ], [ -6.229483, 36.924922 ], [ -6.234334, 36.92547 ], [ -6.239067, 36.926004 ], [ -6.238505, 36.928726 ], [ -6.237871, 36.931587 ] ] ], [ [ [ -6.214569, 36.932893 ], [ -6.214303, 36.934149 ], [ -6.213838, 36.936156 ], [ -6.21373, 36.93662 ], [ -6.213533, 36.937472 ], [ -6.213375, 36.938152 ], [ -6.213274, 36.938624 ], [ -6.212883, 36.938592 ], [ -6.212497, 36.94016 ], [ -6.21176, 36.940099 ], [ -6.209892, 36.939922 ], [ -6.208794, 36.939821 ], [ -6.206729, 36.939623 ], [ -6.206802, 36.939502 ], [ -6.208004, 36.937732 ], [ -6.208606, 36.936853 ], [ -6.209735, 36.935216 ], [ -6.211486, 36.932644 ], [ -6.213139, 36.93278 ], [ -6.214569, 36.932893 ] ] ], [ [ [ -6.222249, 36.933542 ], [ -6.225608, 36.933841 ], [ -6.22544, 36.934913 ], [ -6.225137, 36.936844 ], [ -6.22508, 36.937205 ], [ -6.224909, 36.938296 ], [ -6.224849, 36.93829 ], [ -6.224698, 36.939213 ], [ -6.224452, 36.940667 ], [ -6.224345, 36.941314 ], [ -6.218855, 36.940783 ], [ -6.217927, 36.940693 ], [ -6.215388, 36.940449 ], [ -6.214157, 36.940331 ], [ -6.214309, 36.939674 ], [ -6.214479, 36.938993 ], [ -6.214858, 36.937132 ], [ -6.215824, 36.932999 ], [ -6.218602, 36.933238 ], [ -6.220648, 36.933409 ], [ -6.222249, 36.933542 ] ] ], [ [ [ -6.233429, 36.9345 ], [ -6.233496, 36.934543 ], [ -6.235788, 36.934739 ], [ -6.23717, 36.934857 ], [ -6.23697, 36.93583 ], [ -6.236639, 36.937433 ], [ -6.236294, 36.93911 ], [ -6.235923, 36.940783 ], [ -6.235584, 36.942414 ], [ -6.235545, 36.942411 ], [ -6.235147, 36.942376 ], [ -6.232815, 36.942156 ], [ -6.231287, 36.942005 ], [ -6.230675, 36.941948 ], [ -6.22988, 36.941874 ], [ -6.228889, 36.941779 ], [ -6.227356, 36.941621 ], [ -6.225762, 36.941474 ], [ -6.225613, 36.941459 ], [ -6.225611, 36.941414 ], [ -6.225694, 36.940927 ], [ -6.226081, 36.938445 ], [ -6.226525, 36.935666 ], [ -6.226784, 36.934014 ], [ -6.226793, 36.933949 ], [ -6.227051, 36.93397 ], [ -6.229565, 36.934177 ], [ -6.232164, 36.934392 ], [ -6.232781, 36.934448 ], [ -6.233429, 36.9345 ] ] ], [ [ [ -6.212374, 36.942528 ], [ -6.212305, 36.94285 ], [ -6.212616, 36.942867 ], [ -6.212128, 36.944983 ], [ -6.209614, 36.943885 ], [ -6.205504, 36.942062 ], [ -6.205208, 36.94193 ], [ -6.205147, 36.941873 ], [ -6.20513, 36.941782 ], [ -6.205158, 36.941694 ], [ -6.205982, 36.940465 ], [ -6.208039, 36.940669 ], [ -6.210633, 36.940927 ], [ -6.2106, 36.941136 ], [ -6.212659, 36.94134 ], [ -6.212374, 36.942528 ] ] ], [ [ [ -6.223997, 36.944136 ], [ -6.223694, 36.946083 ], [ -6.22343, 36.947605 ], [ -6.223074, 36.949658 ], [ -6.220722, 36.94863 ], [ -6.217297, 36.947145 ], [ -6.216356, 36.946732 ], [ -6.215858, 36.946513 ], [ -6.21474, 36.946021 ], [ -6.213032, 36.945274 ], [ -6.213538, 36.943046 ], [ -6.213556, 36.942958 ], [ -6.213816, 36.941808 ], [ -6.213887, 36.941468 ], [ -6.219332, 36.941967 ], [ -6.224169, 36.942451 ], [ -6.224136, 36.942664 ], [ -6.223909, 36.944127 ], [ -6.223997, 36.944136 ] ] ], [ [ [ -6.233853, 36.950686 ], [ -6.233811, 36.950679 ], [ -6.230687, 36.950123 ], [ -6.229418, 36.949886 ], [ -6.22942, 36.949874 ], [ -6.229217, 36.94984 ], [ -6.228248, 36.949661 ], [ -6.228173, 36.949647 ], [ -6.2244, 36.948951 ], [ -6.224425, 36.948652 ], [ -6.224892, 36.945628 ], [ -6.224894, 36.945618 ], [ -6.224927, 36.945404 ], [ -6.225133, 36.944246 ], [ -6.225341, 36.942934 ], [ -6.225381, 36.942642 ], [ -6.225392, 36.942562 ], [ -6.2286, 36.942865 ], [ -6.235368, 36.943523 ], [ -6.234967, 36.945439 ], [ -6.234071, 36.94966 ], [ -6.233853, 36.950686 ] ] ], [ [ [ -6.202054, 36.946496 ], [ -6.20451, 36.942325 ], [ -6.219176, 36.948819 ], [ -6.216671, 36.952806 ], [ -6.202054, 36.946496 ] ] ], [ [ [ -6.232056, 36.951351 ], [ -6.233576, 36.951641 ], [ -6.233307, 36.95298 ], [ -6.232989, 36.954563 ], [ -6.232741, 36.955794 ], [ -6.232788, 36.9558 ], [ -6.232726, 36.956107 ], [ -6.232385, 36.957803 ], [ -6.224149, 36.95621 ], [ -6.224924, 36.953227 ], [ -6.225172, 36.952236 ], [ -6.225385, 36.951382 ], [ -6.22537, 36.951207 ], [ -6.225336, 36.951071 ], [ -6.225247, 36.950887 ], [ -6.22511, 36.950725 ], [ -6.224833, 36.950527 ], [ -6.224514, 36.950373 ], [ -6.224185, 36.950255 ], [ -6.224167, 36.950182 ], [ -6.22417, 36.950108 ], [ -6.224175, 36.950024 ], [ -6.224218, 36.949902 ], [ -6.224265, 36.949853 ], [ -6.225976, 36.95017 ], [ -6.229025, 36.950736 ], [ -6.230348, 36.950996 ], [ -6.23035, 36.951052 ], [ -6.232056, 36.951351 ] ] ], [ [ [ -6.22271, 36.961787 ], [ -6.222865, 36.96122 ], [ -6.222868, 36.961207 ], [ -6.223116, 36.9603 ], [ -6.223365, 36.959366 ], [ -6.223623, 36.958404 ], [ -6.223746, 36.957966 ], [ -6.223851, 36.957615 ], [ -6.223852, 36.957612 ], [ -6.223999, 36.957116 ], [ -6.22518, 36.957346 ], [ -6.226044, 36.957508 ], [ -6.226274, 36.957554 ], [ -6.22629, 36.95753 ], [ -6.227049, 36.957682 ], [ -6.226877, 36.958315 ], [ -6.227175, 36.958321 ], [ -6.227351, 36.957765 ], [ -6.227436, 36.957783 ], [ -6.230156, 36.958339 ], [ -6.230981, 36.958559 ], [ -6.231424, 36.958638 ], [ -6.231863, 36.958721 ], [ -6.23194, 36.958746 ], [ -6.231985, 36.958809 ], [ -6.231922, 36.959218 ], [ -6.231864, 36.959562 ], [ -6.231925, 36.959592 ], [ -6.231778, 36.960403 ], [ -6.231777, 36.960411 ], [ -6.231627, 36.961238 ], [ -6.231263, 36.962728 ], [ -6.231062, 36.963443 ], [ -6.231061, 36.963447 ], [ -6.231013, 36.963615 ], [ -6.23096, 36.963614 ], [ -6.230632, 36.964665 ], [ -6.229062, 36.964343 ], [ -6.229061, 36.964343 ], [ -6.228807, 36.964291 ], [ -6.228437, 36.964209 ], [ -6.225453, 36.963584 ], [ -6.222595, 36.962973 ], [ -6.222419, 36.962942 ], [ -6.22248, 36.962668 ], [ -6.22271, 36.961787 ] ] ], [ [ [ -6.230281, 36.968464 ], [ -6.220913, 36.96669 ], [ -6.221889, 36.963377 ], [ -6.231184, 36.965365 ], [ -6.230281, 36.968464 ] ] ], [ [ [ -6.215306, 36.992335 ], [ -6.215117, 36.992103 ], [ -6.21515, 36.991511 ], [ -6.215173, 36.99081 ], [ -6.215196, 36.990362 ], [ -6.221909, 36.989643 ], [ -6.219, 36.99443 ], [ -6.21859, 36.994192 ], [ -6.218462, 36.994035 ], [ -6.217928, 36.993847 ], [ -6.216929, 36.993135 ], [ -6.215306, 36.992335 ] ] ], [ [ [ -6.18726, 36.987626 ], [ -6.1937, 36.989886 ], [ -6.190114, 36.996102 ], [ -6.183991, 36.994601 ], [ -6.18726, 36.987626 ] ] ], [ [ [ -6.203901, 36.997176 ], [ -6.202938, 36.99595 ], [ -6.201979, 36.994727 ], [ -6.201765, 36.994461 ], [ -6.201023, 36.993501 ], [ -6.200494, 36.992808 ], [ -6.199893, 36.99203 ], [ -6.19982, 36.991909 ], [ -6.199861, 36.99184 ], [ -6.201669, 36.991659 ], [ -6.204049, 36.991394 ], [ -6.207268, 36.991037 ], [ -6.210302, 36.990705 ], [ -6.210871, 36.990644 ], [ -6.213319, 36.990413 ], [ -6.214064, 36.990344 ], [ -6.213944, 36.990493 ], [ -6.214065, 36.990489 ], [ -6.214791, 36.990413 ], [ -6.214836, 36.990431 ], [ -6.214837, 36.990464 ], [ -6.214832, 36.991084 ], [ -6.214824, 36.991384 ], [ -6.214813, 36.991885 ], [ -6.214838, 36.992351 ], [ -6.214858, 36.992454 ], [ -6.214914, 36.992522 ], [ -6.215011, 36.992583 ], [ -6.215226, 36.9927 ], [ -6.215325, 36.992786 ], [ -6.215108, 36.992954 ], [ -6.215006, 36.993039 ], [ -6.214826, 36.9932 ], [ -6.214205, 36.99376 ], [ -6.213622, 36.994287 ], [ -6.213067, 36.994796 ], [ -6.212821, 36.995029 ], [ -6.212598, 36.995232 ], [ -6.211992, 36.995782 ], [ -6.211247, 36.996459 ], [ -6.210938, 36.99674 ], [ -6.209789, 36.99778 ], [ -6.209366, 36.998172 ], [ -6.209062, 36.998446 ], [ -6.208393, 36.999062 ], [ -6.208243, 36.999198 ], [ -6.207823, 36.999598 ], [ -6.206775, 37.000582 ], [ -6.2066, 37.000542 ], [ -6.206489, 37.000461 ], [ -6.20637, 37.000319 ], [ -6.206283, 37.000197 ], [ -6.204996, 36.998572 ], [ -6.203901, 36.997176 ] ] ], [ [ [ -6.196634, 36.998025 ], [ -6.191847, 36.99678 ], [ -6.191872, 36.996627 ], [ -6.190679, 36.996296 ], [ -6.190661, 36.996254 ], [ -6.191533, 36.994681 ], [ -6.191747, 36.994401 ], [ -6.194511, 36.995543 ], [ -6.195786, 36.996066 ], [ -6.19667, 36.996426 ], [ -6.196659, 36.996296 ], [ -6.193764, 36.995105 ], [ -6.191772, 36.994288 ], [ -6.192239, 36.993499 ], [ -6.19204, 36.993407 ], [ -6.192638, 36.992339 ], [ -6.193905, 36.990164 ], [ -6.193933, 36.990142 ], [ -6.194, 36.990106 ], [ -6.194052, 36.990105 ], [ -6.194187, 36.990177 ], [ -6.19431, 36.990225 ], [ -6.19708, 36.991267 ], [ -6.197621, 36.991472 ], [ -6.198652, 36.991832 ], [ -6.198779, 36.991854 ], [ -6.198938, 36.991875 ], [ -6.199208, 36.991927 ], [ -6.199285, 36.991993 ], [ -6.199808, 36.992677 ], [ -6.201828, 36.995263 ], [ -6.202475, 36.996128 ], [ -6.203689, 36.997709 ], [ -6.205715, 37.000332 ], [ -6.205733, 37.000382 ], [ -6.205687, 37.000417 ], [ -6.205562, 37.000395 ], [ -6.205413, 37.000357 ], [ -6.204257, 37.000033 ], [ -6.201243, 36.999211 ], [ -6.197848, 36.998335 ], [ -6.196634, 36.998025 ] ] ], [ [ [ -6.217979, 36.993947 ], [ -6.218348, 36.994076 ], [ -6.218508, 36.994182 ], [ -6.21856, 36.994233 ], [ -6.218957, 36.994467 ], [ -6.218012, 36.996022 ], [ -6.217897, 36.995797 ], [ -6.217813, 36.995799 ], [ -6.21734, 36.996572 ], [ -6.217249, 36.996667 ], [ -6.216019, 36.998711 ], [ -6.215646, 36.999346 ], [ -6.214829, 37.000698 ], [ -6.213802, 37.002427 ], [ -6.211184, 37.001789 ], [ -6.209084, 37.001293 ], [ -6.208374, 37.00105 ], [ -6.207884, 37.000928 ], [ -6.207579, 37.000797 ], [ -6.20703, 37.000656 ], [ -6.207143, 37.00045 ], [ -6.20764, 37.000006 ], [ -6.20788, 36.999704 ], [ -6.20825, 36.999369 ], [ -6.209366, 36.99835 ], [ -6.209674, 36.998038 ], [ -6.212569, 36.995409 ], [ -6.213865, 36.994192 ], [ -6.214596, 36.993547 ], [ -6.215713, 36.992628 ], [ -6.216519, 36.993011 ], [ -6.216804, 36.99316 ], [ -6.217042, 36.993314 ], [ -6.21739, 36.993583 ], [ -6.217743, 36.993835 ], [ -6.217979, 36.993947 ] ] ] ] } }
]
}
